<?xml version='1.0' encoding='utf-8'?>
<kml xmlns="http://www.opengis.net/kml/2.2">
  <Document>
    <Placemark>
      <name>Circuito Automotodrom Brno</name>
      <description>Punto inicial</description>
      <Point>
        <coordinates>16.44528,49.20278,440</coordinates>
        <altitudeMode>relativeToGround</altitudeMode>
      </Point>
    </Placemark>
    <name>Circuito Automotodrom Brno</name>
    <Placemark>
      <LineString>
        <extrude>1</extrude>
        <tessellation>1</tessellation>
        <coordinates>16.44528,49.20278,20.0
16.44806,49.20194,20.0
16.44917,49.20194,20.0
16.44972,49.20194,20.0
16.45000,49.20222,20.0
16.45028,49.20306,20.0
16.45056,49.20333,20.0
16.45111,49.20333,20.0
16.45806,49.20167,20.0
16.45833,49.20167,20.0
16.45861,49.20194,20.0
16.45917,49.20250,20.0
16.45972,49.20278,20.0
16.46000,49.20278,20.0
16.46306,49.20167,20.0
16.46389,49.20167,20.0
16.46417,49.20167,20.0
16.46444,49.20194,20.0
16.46444,49.20222,20.0
16.46000,49.20639,20.0
16.45972,49.20667,20.0
16.45917,49.20667,20.0
16.45889,49.20639,20.0
16.45861,49.20556,20.0
16.45806,49.20556,20.0
16.45778,49.20556,20.0
16.45528,49.20639,20.0
16.45500,49.20667,20.0
16.45500,49.20694,20.0
16.45500,49.20722,20.0
16.45528,49.20722,20.0
16.45694,49.20750,20.0
16.45750,49.20750,20.0
16.45778,49.20861,20.0
16.45750,49.20889,20.0
16.45694,49.20917,20.0
16.45028,49.20806,20.0
16.45000,49.20806,20.0
16.45000,49.20750,20.0
16.45056,49.20639,20.0
16.45056,49.20611,20.0
16.45028,49.20583,20.0
16.44250,49.20556,20.0
16.44167,49.20583,20.0
16.44056,49.20611,20.0
16.44000,49.20583,20.0
16.43944,49.20583,20.0
16.43917,49.20556,20.0
16.43917,49.20500,20.0
16.43917,49.20444,20.0
16.43972,49.20417,20.0
16.44528,49.20278,20.0
</coordinates>
        <altitudeMode>relativeToGround</altitudeMode>
      </LineString>
      <Style>
        <LineStyle>
          <color>#ff0000ff</color>
          <width>5</width>
        </LineStyle>
      </Style>
    </Placemark>
  </Document>
</kml>